BEIDOU-2 IGSO-5         
1 37948U 11073A   26183.72937883 -.00000128  00000+0  00000+0 0  9990
2 37948  47.6496 271.3544 0114527 222.0502 141.5350  1.00270596 53296
LUCH-5A                 
1 37951U 11074B   26192.61602730 -.00000053  00000+0  00000+0 0  9990
2 37951   8.8131  73.4475 0002557  59.2319 185.5811  1.00272645 53291
BEIDOU-2 G5             
1 38091U 12008A   26192.86169810  .00000058  00000+0  00000+0 0  9992
2 38091   3.6315  69.5392 0007372 269.9016 319.2161  1.00269404 52610
BEIDOU-2 M3             
1 38250U 12018A   26192.88876486 -.00000070  00000+0  00000+0 0  9991
2 38250  55.7352 304.0435 0020915 272.3940  87.3826  1.86229895 96403
BEIDOU-2 M4             
1 38251U 12018B   26191.21022507 -.00000069  00000+0  00000+0 0  9993
2 38251  55.6367 303.3120 0012086 272.7348  87.1429  1.86229687 96370
SES-5                   
1 38652U 12036A   26192.56591961  .00000039  00000+0  00000+0 0  9998
2 38652   0.0459 320.2644 0001915 152.4522  25.4597  1.00270748 44708
BEIDOU-2 M6             
1 38775U 12050B   26191.99378088 -.00000045  00000+0  00000+0 0  9997
2 38775  56.5649  62.1074 0013031   1.0822 358.9856  1.86230857 93756
GSAT-10                 
1 38779U 12051B   26192.89780766 -.00000160  00000+0  00000+0 0  9990
2 38779   0.1009 265.5087 0007403 187.4891 242.9839  1.00271578 50341
NAVSTAR 67 (USA 239)    
1 38833U 12053A   26192.24735518  .00000021  00000+0  00000+0 0  9992
2 38833  53.5891 142.6137 0181750  66.1505 295.7065  2.00567820 99920
GSAT0103 (GALILEO-FM3)  
1 38857U 12055A   26190.76599401 -.00000019  00000+0  00000+0 0  9992
2 38857  55.8193 100.9259 0003945 309.3641  50.6099  1.70473301 85397
BEIDOU-2 G6             
1 38953U 12059A   26192.95650215 -.00000176  00000+0  00000+0 0  9991
2 38953   4.4815  73.2546 0008854 327.1699 317.7276  1.00274725 50153
LUCH-5B                 
1 38977U 12061A   26192.84691051 -.00000142  00000+0  00000+0 0  9994
2 38977  10.5335  49.6307 0003795 144.9936  23.7538  1.00270805 49859
COSMOS 2485 [GLONASS-M] 
1 39155U 13019A   26190.90372010 -.00000024  00000+0  00000+0 0  9992
2 39155  65.4318  72.8427 0022762 231.6212 128.2346  2.13103398102760
NAVSTAR 68 (USA 242)    
1 39166U 13023A   26192.11498184  .00000007  00000+0  00000+0 0  9995
2 39166  54.4858 267.9980 0141388  51.1088 310.2120  2.00563301 96363
IRNSS-1A                
1 39199U 13034A   26191.72043649  .00000047  00000+0  00000+0 0  9995
2 39199  35.7704  63.5328 0017567 183.4462 356.2994  1.00281941 47601
NAVSTAR 69 (USA 248)    
1 39533U 14008A   26192.61537354  .00000026  00000+0  00000+0 0  9996
2 39533  53.6574 148.3234 0084133 231.5291 127.6792  2.00561298 90176
ASTRA 5B                
1 39617U 14011B   26192.94304444  .00000141  00000+0  00000+0 0  9999
2 39617   0.0842 298.4202 0001993 190.6422 163.7786  1.00272606 44915
COSMOS 2492 [GLONASS-M] 
1 39620U 14012A   26191.80109220 -.00000061  00000+0  00000+0 0  9995
2 39620  65.2825 313.1340 0010293 318.9623  40.9656  2.13103316 95747
IRNSS-1B                
1 39635U 14017A   26191.72026316  .00000149  00000+0  00000+0 0  9997
2 39635  28.8825 239.9967 0022327 191.5584 171.4704  1.00274378 45033
LUCH-5V                 
1 39727U 14023A   26192.72797284 -.00000269  00000+0  00000+0 0  9990
2 39727   5.1894  69.4840 0002022  77.0115 139.8925  1.00275169 44607
NAVSTAR 70 (USA 251)    
1 39741U 14026A   26192.89134043 -.00000086  00000+0  00000+0 0  9992
2 39741  56.4851 330.5562 0038127 325.8600  33.8911  2.00559063 89039
COSMOS 2500 [GLONASS-M] 
1 40001U 14032A   26192.90905316 -.00000063  00000+0  00000+0 0  9996
2 40001  65.2172 312.8417 0008133 189.5491 170.4407  2.13105969 93986
NAVSTAR 71 (USA 256)    
1 40105U 14045A   26192.48449105 -.00000038  00000+0  00000+0 0  9999
2 40105  55.3686  87.4969 0034253 118.3351 242.0458  2.00559992 86568
GSAT0201 (GALILEO 5)    
1 40128U 14050A   26191.05431484 -.00000022  00000+0  00000+0 0  9996
2 40128  48.8500 272.4979 1677815 180.2883 179.6634  1.85519753 78743
GSAT0202 (GALILEO 6)    
1 40129U 14050B   26192.38774232 -.00000014  00000+0  00000+0 0  9996
2 40129  48.8660 271.5287 1679177 181.0429 178.6225  1.85520566 80934
IRNSS-1C                
1 40269U 14061A   26192.89061407 -.00000165  00000+0  00000+0 0  9999
2 40269   6.5787  88.4618 0022134   5.0900 239.8922  1.00272869 42935
NAVSTAR 72 (USA 258)    
1 40294U 14068A   26191.85402742 -.00000050  00000+0  00000+0 0  9993
2 40294  57.0039  30.0437 0067283  71.1088 289.6754  2.00574612 85688
COSMOS 2501 [GLONASS-K] 
1 40315U 14075A   26192.70215678  .00000102  00000+0  00000+0 0  9997
2 40315  63.6181 189.5233 0022678 212.6195 147.2630  2.13101292 90375
NAVSTAR 73 (USA 260)    
1 40534U 15013A   26192.49416457  .00000101  00000+0  00000+0 0  9996
2 40534  53.1664 203.1722 0110223  40.3419 320.5159  2.00549847 82318
GSAT0203 (GALILEO 7)    
1 40544U 15017A   26191.08953242 -.00000080  00000+0  00000+0 0  9990
2 40544  56.7788 340.9723 0002503 258.1316 101.8369  1.70476121 69590
GSAT0204 (GALILEO 8)    
1 40545U 15017B   26191.34538535 -.00000081  00000+0  00000+0 0  9995
2 40545  56.7851 340.9839 0002638 235.0424 124.9287  1.70475622 32649
